{
  "type": "FeatureCollection",
  "name": "derived_2018_pickup_zone_metrics",
  "description": "Static derived aggregate taxi-zone metrics used by the dashboard. This artifact stores no trip-level records.",
  "features": [
    { "type": "Feature", "id": "161", "properties": { "zone_id": "161", "zone_name": "Midtown Center", "borough": "Manhattan", "trips": 19120000, "pct_of_total_trips": 18.6, "total_revenue": 260032000, "avg_revenue_per_trip": 13.6 }, "geometry": { "type": "Polygon", "coordinates": [[[-73.990,40.750],[-73.968,40.750],[-73.968,40.766],[-73.990,40.766],[-73.990,40.750]]] } },
    { "type": "Feature", "id": "230", "properties": { "zone_id": "230", "zone_name": "Times Sq / Theatre District", "borough": "Manhattan", "trips": 12760000, "pct_of_total_trips": 12.4, "total_revenue": 176088000, "avg_revenue_per_trip": 13.8 }, "geometry": { "type": "Polygon", "coordinates": [[[-73.993,40.758],[-73.981,40.758],[-73.981,40.770],[-73.993,40.770],[-73.993,40.758]]] } },
    { "type": "Feature", "id": "236", "properties": { "zone_id": "236", "zone_name": "Upper East Side South", "borough": "Manhattan", "trips": 9770000, "pct_of_total_trips": 9.5, "total_revenue": 135803000, "avg_revenue_per_trip": 13.9 }, "geometry": { "type": "Polygon", "coordinates": [[[-73.972,40.764],[-73.948,40.764],[-73.948,40.784],[-73.972,40.784],[-73.972,40.764]]] } },
    { "type": "Feature", "id": "239", "properties": { "zone_id": "239", "zone_name": "Upper West Side South", "borough": "Manhattan", "trips": 8950000, "pct_of_total_trips": 8.7, "total_revenue": 127985000, "avg_revenue_per_trip": 14.3 }, "geometry": { "type": "Polygon", "coordinates": [[[-73.992,40.770],[-73.973,40.770],[-73.973,40.790],[-73.992,40.790],[-73.992,40.770]]] } },
    { "type": "Feature", "id": "138", "properties": { "zone_id": "138", "zone_name": "LaGuardia Airport", "borough": "Queens", "trips": 3600000, "pct_of_total_trips": 3.5, "total_revenue": 136080000, "avg_revenue_per_trip": 37.8 }, "geometry": { "type": "Polygon", "coordinates": [[[-73.890,40.764],[-73.852,40.764],[-73.852,40.786],[-73.890,40.786],[-73.890,40.764]]] } },
    { "type": "Feature", "id": "132", "properties": { "zone_id": "132", "zone_name": "JFK Airport", "borough": "Queens", "trips": 2980000, "pct_of_total_trips": 2.9, "total_revenue": 154364000, "avg_revenue_per_trip": 51.8 }, "geometry": { "type": "Polygon", "coordinates": [[[-73.824,40.628],[-73.756,40.628],[-73.756,40.668],[-73.824,40.668],[-73.824,40.628]]] } },
    { "type": "Feature", "id": "265", "properties": { "zone_id": "265", "zone_name": "Newark Airport", "borough": "EWR", "trips": 103000, "pct_of_total_trips": 0.1, "total_revenue": 9461580, "avg_revenue_per_trip": 91.86 }, "geometry": { "type": "Polygon", "coordinates": [[[-74.192,40.675],[-74.158,40.675],[-74.158,40.706],[-74.192,40.706],[-74.192,40.675]]] } }
  ]
}
